FENGYUN 1C DEB          
1 30101U 99025RE  17345.64931878  .00001595  00000-0  48200-3 0  9993
2 30101  99.1616 232.7538 0039637  41.2158  18.7536 14.43488439568656
